IRIDIUM 159             
1 43578U 18061K   23277.88869118  .00000159  00000+0  49559-4 0  9993
2 43578  86.3916 108.9416 0002178  87.6390 272.5055 14.34217667272011
IRIDIUM 180             
1 43922U 19002A   23277.88817770  .00000363  00000+0  12257-3 0  9990
2 43922  86.3981  45.7759 0002209  99.8994 260.2452 14.34215223247624
IRIDIUM 176             
1 43923U 19002B   23277.87956167 -.00001456  00000+0 -23493-3 0  9994
2 43923  86.6109  45.8134 0002259  90.8814 269.2662 14.72252559254136
IRIDIUM 168             
1 43924U 19002C   23277.88183907  .00000328  00000+0  11013-3 0  9990
2 43924  86.3983  45.8279 0002190  96.4492 263.6953 14.34217067247600
IRIDIUM 173             
1 43925U 19002D   23277.72961631  .00000580  00000+0  20000-3 0  9998
2 43925  86.3981  45.8210 0002267  94.5569 265.5886 14.34220712247565
IRIDIUM 169             
1 43926U 19002E   23277.95138104  .00000274  00000+0  83151-4 0  9992
2 43926  86.4182  77.3547 0003667  28.6288 331.5111 14.38612309248437
IRIDIUM 172             
1 43927U 19002F   23277.86280764  .00000678  00000+0  23500-3 0  9992
2 43927  86.3982  45.7700 0002208  92.4833 267.6616 14.34214873247595
IRIDIUM 175             
1 43928U 19002G   23277.87342155  .00002555  00000+0  40119-3 0  9998
2 43928  86.1547  33.4514 0002267  92.9817 267.1659 14.72251381254126
